#dP2020  8  8  0  0  0.00000000      96 __u+U ITR00 FIT  IAC
## 2117 518400.00000000   900.00000000 59069 0.0000000000000
+  114   C06C07C08C09C10C11C12C13C14C16C19C20C21C22C23C24C25
+        C26C27C28C29C30C32C33C34C35C36C37C39C40C43C44C45C46
+        E01E02E03E04E05E07E08E09E11E12E13E14E15E18E19E21E24
+        E25E26E27E30E31E33E36G01G02G03G04G05G06G07G08G09G10
+        G11G12G13G15G16G17G18G19G20G21G22G23G24G25G26G27G28
+        G29G30G31G32J01J02J03R01R02R03R04R05R07R08R09R11R12
+        R13R14R15R16R17R18R19R20R21R23R24R26  0  0  0  0  0
++         8 11  8  8  8  7  7  6  8  7  5  5  5  7  7  8  7
++         7  7  8  7  7  6  9  7  6  8  7  6  5  8  8  9  0
++         6  6  6  6  7  6  5  7  6  7  6  7  6  7  6  7  7
++         6  5  6  6  6  6  6  5  5  7  6  6  5  6  6  6  6
++         6  6  6  6  5  6  6  6  6  5  6  7  6  6  6  5  6
++         6  6  6  5 10  8  7  8  8  6  7  6  6  6  7  6  5
++         6  6  7  6  6  6  6  6  7  7  5  7  0  0  0  0  0
%c M  cc GPS ccc cccc cccc cccc cccc ccccc ccccc ccccc ccccc
%c cc cc ccc ccc cccc cccc cccc cccc ccccc ccccc ccccc ccccc
%f  0.0000000  0.000000000  0.00000000000  0.000000000000000
%f  0.0000000  0.000000000  0.00000000000  0.000000000000000
%i    0    0    0    0      0      0      0      0         0
%i    0    0    0    0      0      0      0      0         0
/* INFORMATION & ANALYSIS CENTER (IAC)      ULTRA-RAPID DATA
/* S/V CLOCKS ARE ALIGNED TO GNSS TIME                      
/* G:C1WC2W R:C1PC2P E:C1XC5X C:C2IC6I J:C1CC2S             
/* PCV:IGS14_2114 OL/AL:FES2004  NONE     YN ORB:CoN CLK:CoN
*  2020 08 08 15 30  0.00000000
PC06 -19672.414786  23719.219283  28998.191369    196.617363
PC07 -16968.350793  38539.992383   5553.870008     92.898526
PC08  -4832.733103  25336.410614 -33170.079024   -432.161823
PC09  -5020.409219  24801.860820  33939.733377    730.434498
PC10  -7445.483103  41205.980959  -6484.752399   -216.246301
PC11   1598.994435 -15248.531037  23369.273024   -542.709425
PC12  20762.799643  -8908.470935  16384.291985    460.979096
PC13   7252.910993  33313.439150 -24541.759932    585.425711
PC14   7746.993772 -24510.206615 -10762.312273    790.318266
PC16 -16824.661844  23910.819085  30399.866640   -591.734067
PC19    384.288181  21418.572641  17918.715626    502.667630
PC20 -13950.249342  24004.844341   3003.406488   -836.140842
PC21  20552.356656 -12274.778377  14336.703366   -664.026385
PC22  14812.879058   6379.562904  22773.119337   -766.242720
PC23 -18096.408497 -16458.625465  13437.653632   -845.870568
PC24   5287.608160 -20165.793117 -18554.214736   -747.287533
PC25 -10111.594530 -25816.203257  -3237.451239   -714.372087
PC26  16013.123946  -3741.339983 -22543.441676    784.908055
PC27 -26392.203833   3217.027406  -8474.484640    378.223110
PC28 -24822.519254  -8875.937800   9172.584165   -185.166706
PC29   9304.793145  15388.580216 -21347.892855    267.124966
PC30 -12375.490188  13724.941211 -20910.613052    358.237157
PC32 -20468.074604  12471.102088 -14290.368704 999999.999999
PC33   -451.397138 -21441.698488 -17838.703801   -794.135227
PC34  11901.694311 -13888.518406  21071.499319   -882.690487
PC35  25011.164995   8169.264590  -9346.023097   -711.747213
PC36   9313.353540  26080.004267   3516.703315   -893.386296
PC37 -16392.124056   2585.618513  22463.183071   -892.413489
PC39 -16284.254677  24857.687015  29873.494881 999999.999999
PC40 -14453.172475  39529.156000  -3904.027589 999999.999999
PC43  -8825.125728 -15595.759077  21380.468509   -318.407647
PC44  26380.609210  -3968.082663   8230.482324   -283.042646
PC45  18072.228288  16433.509299 -13469.262035    199.886228
PC46  -4727.681131  20522.737315  18313.190449 999999.999999
PE01  -8288.422576 -25395.653106  12749.570388   -915.311035
PE02   8337.027907  25338.441593 -12820.660546    152.989754
PE03   9121.956183  14494.933494  24144.451387   -329.488050
PE04 -24395.734738    215.491596 -16758.244985   -582.331891
PE05 -11678.626865  20870.407031  17450.219195   -356.380930
PE07  25499.939042 -15004.161850   -611.107088   -419.882001
PE08  24442.172312   -630.834806  16677.234329   6138.005714
PE09 -25376.837122  15240.801447    741.984535   5970.357488
PE11 -19576.827490   5170.485943 -21600.301579   4653.328841
PE12 -26891.208725 -10636.075219  -6294.066558   5666.030563
PE13  19713.777101  -4977.845193  21509.534259    402.870164
PE14  26883.660940   -556.775809  -5981.605252  -1112.921898
PE15  26936.180880  10413.143971   6490.493342    857.047501
PE18 -25648.814397  12628.254920  -9268.204313  -1217.527895
PE19  -6865.459032 -15587.651072 -24201.996379     48.052275
PE21   3872.916866 -28817.524162  -5518.528764   -614.654581
PE24 -14329.375242  15045.996285  21071.955628   5308.155019
PE25  -3977.554469  28783.359128   5675.655472   -514.823703
PE26    556.303172 -17789.679964  23649.895413   2866.472160
PE27  14087.206940 -15487.077262 -20915.405846    160.109389
PE30  15911.066154   7487.323038 -23811.796670   3682.207062
PE31 -15983.610765  -6860.918587  23961.667757   -473.550749
PE33 -18332.292295 -19688.779554  12344.656311   -463.978018
PE36   -917.910066  17445.048010 -23897.422407    523.457229
PG01  21337.016366  13749.390864   8141.266128     32.494490
PG02 -11196.174067 -21066.979765  12355.171711   -499.261000
PG03  13938.813828   5976.963663  21737.205292   -264.101552
PG04  24382.350007   1712.059973  10446.935431   -122.157563
PG05  -3559.372083 -23287.199843 -12221.450782    -18.390374
PG06   1301.614766 -17528.976394  19947.783540   -313.224924
PG07  17738.039195  -1794.097854 -19514.974712   -345.685569
PG08  17031.978793   8397.498978 -18666.321391    -43.787307
PG09  25377.257483  -7845.707343   -662.077382   -267.113984
PG10 -11630.085082  22261.190267  -8158.767771   -422.159430
PG11  22377.906709  12541.800999  -6645.324431   -198.372023
PG12 -12857.211206  -7669.340628  21716.340332     83.201567
PG13  -8316.326126 -13671.001539 -21336.524435     33.982417
PG15 -18571.397177  -7227.778233 -18057.754082   -211.998505
PG16   3156.703115  21459.639148 -15236.044540 999999.999999
PG17  16020.217028 -14289.415755  16035.280474    308.043716
PG18 -17041.455880   2529.221634 -20238.936059    265.367306
PG19   9130.371626 -14848.740035  19726.261140   -121.159602
PG20 -14764.283192  13176.508622 -17683.511835    527.091810
PG21   3094.733238  19142.827918 -17557.553620     33.306787
PG22  12118.839779  14048.752232  19260.668176   -765.834579
PG23 -15027.876792  15003.231847 -15979.071729     33.098993
PG24 -22036.197718 -14192.357917   5183.377311    -16.852990
PG25 -15909.235716   4814.109223  20420.038612     32.898077
PG26  -4498.075007  25987.070812  -1843.362386    257.778843
PG27   5694.462241  13867.628287 -22084.722962   -366.167133
PG28  12456.544704 -22667.696331  -5785.969398    691.582244
PG29 -26217.180955   3204.167168   2981.290057   -168.312918
PG30  10082.954712 -12106.987931 -21319.401936   -278.281863
PG31   -455.613689  18612.499780  18719.195981    -60.879264
PG32 -14527.294478  15634.723888  15801.449371    329.637134
PJ01 -27357.341822  32024.662625   1528.305372   -191.224089
PJ02 -26499.620739  24285.053803  26934.655278     -2.131671
PJ03 -32526.428734  17633.498611 -15653.369733     -0.369887
PR01 -16136.344588  19345.892290   4057.715999     65.734684
PR02   -798.483834  14598.837689  20926.467395    440.047404
PR03  13329.783799   1387.982341  21755.071610     19.998752
PR04  19650.724993 -12570.021167  10350.538744     59.143077
PR05  15088.381400 -19374.269538  -6931.919213     55.479066
PR07 -13640.517352   -911.479923 -21489.865516    -39.138942
PR08 -19674.955143  12566.286919 -10207.596748    -53.942727
PR09  -9174.188031 -23027.251384   5876.861334    147.847897
PR11 -10014.232630   5498.757531  22830.669074    -33.367221
PR12  -2094.222342  20373.526889  15228.466231    153.806680
PR13   7440.686048  24358.388313  -1499.372904    -42.219117
PR14  12342.020942  13927.646935 -17438.507933     54.234632
PR15  10152.586497  -4399.769348 -22956.483761    106.955190
PR16   1366.888177 -20943.088910 -14599.122245     -5.168313
PR17  23254.798280   8987.608816  -5284.531612    347.982009
PR18  22742.439754   1030.859796  11561.836649     45.129146
PR19  10691.034023  -6993.091436  22069.713600   -105.918815
PR20  -9977.177286 -12388.417887  19928.689759   -418.785350
PR21 -23627.255244  -8659.184485   4274.718953   -143.694661
PR23  -3212.148698   9932.681475 -23288.214082    323.956533
PR24  10698.850170  12712.573695 -19337.057340      9.039370
PR26  -4998.953923 -11733.533485  22102.557181   -362.597688
EOF
